{"type": "FeatureCollection", "features": [{"type": "Feature", "id": 1, "geometry": {"type": "Polygon", "coordinates": [[[-87.05732622656812, 40.56293204462995], [-87.07610766199869, 40.563051656856715], [-87.09526266389078, 40.56295301440656], [-87.09480001287145, 40.54872657416781], [-87.09479089450072, 40.53410890822027], [-87.09448588278173, 40.51948669549742], [-87.09432161773735, 40.50490356147852], [-87.09392148723776, 40.49036579163797], [-87.09367618252655, 40.47584897753867], [-87.0927442672041, 40.475876912399855], [-87.092790041027, 40.46059763495274], [-87.09276723994945, 40.44603880785261], [-87.092782700383, 40.43158440633694], [-87.0927608044563, 40.41706468890773], [-87.09282032625754, 40.40256247756795], [-87.09288507134539, 40.38821354205655], [-87.09195710766038, 40.388232413210055], [-87.0921046500248, 40.373768232222744], [-87.09217966733785, 40.36660697897891], [-87.0922352204109, 40.35941356290004], [-87.09228827572684, 40.34506824725063], [-87.0928147441239, 40.33070361773307], [-87.09289980852493, 40.31617809543579], [-87.0928278955847, 40.30163681635346], [-87.09258679682489, 40.30163700954655], [-87.09267312622826, 40.28801789399915], [-87.09267236384576, 40.273382113493184], [-87.09265700076567, 40.258631566751994], [-87.09243000503669, 40.24401199340722], [-87.09252110853521, 40.229403498338925], [-87.09259359440793, 40.21476965119857], [-87.09242067597094, 40.21476978939068], [-87.07359511901632, 40.21473191039834], [-87.05468307737723, 40.21468401470084], [-87.03579859469792, 40.21485073270337], [-87.0179878962068, 40.21490074683964], [-86.999019857764, 40.21482182102472], [-86.99885039223915, 40.214822038154324], [-86.98009314943093, 40.21484450562309], [-86.97914603157444, 40.21484961892035], [-86.96108272689499, 40.21491113577615], [-86.96010377996136, 40.21493696514069], [-86.94231269986363, 40.21488434068365], [-86.94094697237821, 40.214870469761735], [-86.9233877511055, 40.21489249954877], [-86.90423707927064, 40.214992725645075], [-86.88536927585626, 40.214975515636006], [-86.86654898968455, 40.21495741297025], [-86.86631870842922, 40.2149562472701], [-86.84752237325019, 40.21491196513211], [-86.82865047085953, 40.214874589107936], [-86.82844937530069, 40.21487429125357], [-86.80953651200659, 40.21487746105879], [-86.79006408407501, 40.2148251860784], [-86.78966225520212, 40.21482123517196], [-86.77119510738244, 40.21467403951006], [-86.75238446470259, 40.21464833670139], [-86.74994665338858, 40.2146346598772], [-86.73410723372422, 40.21456076541776], [-86.73354410320484, 40.214559470504824], [-86.7145448643572, 40.21446791360172], [-86.69569055015923, 40.21438877393075], [-86.69557310803152, 40.22891953978504], [-86.69530561749453, 40.243472043349485], [-86.69521222925098, 40.25820606307175], [-86.69533532164954, 40.272551812180595], [-86.6953704219142, 40.28695219854119], [-86.69523551010124, 40.30135068199212], [-86.69515893515057, 40.315837795241364], [-86.69515177712023, 40.31595923400557], [-86.69504423328371, 40.33039128064613], [-86.69493914030971, 40.34485713447154], [-86.69490189158137, 40.35945735321374], [-86.69474808581325, 40.37398624227275], [-86.69465315319816, 40.38863300536399], [-86.69462164061682, 40.4031136681827], [-86.69449912836845, 40.41767932881996], [-86.69454650031473, 40.43208334144002], [-86.69454685456918, 40.432147962034264], [-86.69462530262813, 40.44649432110391], [-86.6946229157654, 40.44666048102086], [-86.69468427833375, 40.461148765013235], [-86.69468228948364, 40.46132295146197], [-86.69481107041486, 40.47505185120264], [-86.69489089072644, 40.48933520194966], [-86.69488996941227, 40.48953863629945], [-86.69497496840285, 40.50394134533368], [-86.69497241715023, 40.50420962080742], [-86.69499649913922, 40.51830515372735], [-86.6949927684223, 40.51868759520118], [-86.69504343104336, 40.5326409630681], [-86.6950411610611, 40.53314167289884], [-86.6951258670714, 40.54712541787198], [-86.69512198705466, 40.54767469951778], [-86.69556403974995, 40.561824074085266], [-86.69734478542676, 40.561838151615916], [-86.72073814354665, 40.56187350885428], [-86.73325396297409, 40.561904005254014], [-86.73401897559151, 40.56190548939092], [-86.75212475006917, 40.562083675143676], [-86.75287387406271, 40.56206191127547], [-86.77118134597443, 40.56209801284407], [-86.77184744693018, 40.56209941009462], [-86.77387542068041, 40.562076582238454], [-86.77901596933678, 40.56209962032269], [-86.78159714911938, 40.56211110154187], [-86.7902344670647, 40.56214657523426], [-86.79066203537676, 40.56215369232176], [-86.7909660717687, 40.56216769129978], [-86.81140308952001, 40.562100159777124], [-86.83053067083367, 40.56201388450961], [-86.83139642593716, 40.56199092881393], [-86.84940747911885, 40.56182348555146], [-86.85023361747939, 40.5618245594497], [-86.86862313106414, 40.56170073393242], [-86.86953111069914, 40.561691100387485], [-86.88758307369149, 40.56156052570806], [-86.88781364674212, 40.56155935157872], [-86.90656268535513, 40.561380061854045], [-86.90706573115176, 40.561392786969805], [-86.92490329472012, 40.561230829336154], [-86.94392263340617, 40.561516668690984], [-86.9440065323515, 40.56151810133153], [-86.96307824914852, 40.56176365261518], [-86.98182472471068, 40.56204399958193], [-86.982123378035, 40.56204652308878], [-87.00138973571542, 40.56235344078909], [-87.00185565054187, 40.562360795586685], [-87.02090659818911, 40.56265990119946], [-87.02105328878223, 40.562662113872115], [-87.03814620468178, 40.56291849758936], [-87.05732622656812, 40.56293204462995]]]}, "properties": {"Id": 0, "OBJECTID": 1, "Shape_Length": 475937.44202290155, "Shape_Area": 14028376938.707857}}]}